{"type": "FeatureCollection", "features": [{"type": "Feature", "properties": {"norad_id": 37846, "name": "GSAT0101 (GALILEO-PFM)", "group": "galileo", "lat": -22.319201703904536, "lon": -28.891200219060547, "alt_km": 23215.774305941177, "timestamp": "2025-12-22T05:49:03.762168+00:00", "meta": {"OBJECT_NAME": "GSAT0101 (GALILEO-PFM)", "OBJECT_ID": "2011-060A", "EPOCH": "2025-12-21T02:42:49.222944", "MEAN_MOTION": 1.70475776, "ECCENTRICITY": 0.00032099, "INCLINATION": 57.0509, "RA_OF_ASC_NODE": 346.5929, "ARG_OF_PERICENTER": 319.8352, "MEAN_ANOMALY": 40.1502, "EPHEMERIS_TYPE": 0, "CLASSIFICATION_TYPE": "U", "NORAD_CAT_ID": 37846, "ELEMENT_SET_NO": 999, "REV_AT_EPOCH": 8808, "BSTAR": 0, "MEAN_MOTION_DOT": -6.8e-07, "MEAN_MOTION_DDOT": 0}, "tle": {"line1": "1 37846U 11060A   25355.11306971 -.00000068  00000+0  00000+0 0  9997", "line2": "2 37846  57.0509 346.5929 0003209 319.8352  40.1502  1.70475776 88089"}}, "geometry": {"type": "Point", "coordinates": [-28.891200219060547, -22.319201703904536]}}, {"type": "Feature", "properties": {"norad_id": 37847, "name": "GSAT0102 (GALILEO-FM2)", "group": "galileo", "lat": 15.525170343211622, "lon": -3.0683430135827137, "alt_km": 23213.937153655916, "timestamp": "2025-12-22T05:49:03.762191+00:00", "meta": {"OBJECT_NAME": "GSAT0102 (GALILEO-FM2)", "OBJECT_ID": "2011-060B", "EPOCH": "2025-12-21T07:52:29.961984", "MEAN_MOTION": 1.70476011, "ECCENTRICITY": 0.00051511, "INCLINATION": 57.0515, "RA_OF_ASC_NODE": 346.5875, "ARG_OF_PERICENTER": 312.968, "MEAN_ANOMALY": 224.4746, "EPHEMERIS_TYPE": 0, "CLASSIFICATION_TYPE": "U", "NORAD_CAT_ID": 37847, "ELEMENT_SET_NO": 999, "REV_AT_EPOCH": 8809, "BSTAR": 0, "MEAN_MOTION_DOT": -6.8e-07, "MEAN_MOTION_DDOT": 0}, "tle": {"line1": "1 37847U 11060B   25355.32812456 -.00000068  00000+0  00000+0 0  9991", "line2": "2 37847  57.0515 346.5875 0005151 312.9680 224.4746  1.70476011 88094"}}, "geometry": {"type": "Point", "coordinates": [-3.0683430135827137, 15.525170343211622]}}, {"type": "Feature", "properties": {"norad_id": 38857, "name": "GSAT0103 (GALILEO-FM3)", "group": "galileo", "lat": -40.32911161445114, "lon": 71.04589640072355, "alt_km": 23220.533471765186, "timestamp": "2025-12-22T05:49:03.762206+00:00", "meta": {"OBJECT_NAME": "GSAT0103 (GALILEO-FM3)", "OBJECT_ID": "2012-055A", "EPOCH": "2025-12-18T05:17:11.481792", "MEAN_MOTION": 1.70473412, "ECCENTRICITY": 0.00028558, "INCLINATION": 55.6954, "RA_OF_ASC_NODE": 106.5161, "ARG_OF_PERICENTER": 269.0808, "MEAN_ANOMALY": 90.8455, "EPHEMERIS_TYPE": 0, "CLASSIFICATION_TYPE": "U", "NORAD_CAT_ID": 38857, "ELEMENT_SET_NO": 999, "REV_AT_EPOCH": 8192, "BSTAR": 0, "MEAN_MOTION_DOT": -7e-08, "MEAN_MOTION_DDOT": 0}, "tle": {"line1": "1 38857U 12055A   25352.22027178 -.00000007  00000+0  00000+0 0  9996", "line2": "2 38857  55.6954 106.5161 0002855 269.0808  90.8455  1.70473412 81920"}}, "geometry": {"type": "Point", "coordinates": [71.04589640072355, -40.32911161445114]}}, {"type": "Feature", "properties": {"norad_id": 40128, "name": "GSAT0201 (GALILEO 5)", "group": "galileo", "lat": 48.889121254924945, "lon": 3.8268791008571346, "alt_km": 20604.728710375555, "timestamp": "2025-12-22T05:49:03.762218+00:00", "meta": {"OBJECT_NAME": "GSAT0201 (GALILEO 5)", "OBJECT_ID": "2014-050A", "EPOCH": "2025-12-21T00:18:08.005824", "MEAN_MOTION": 1.85519694, "ECCENTRICITY": 0.16487459, "INCLINATION": 49.0672, "RA_OF_ASC_NODE": 280.7264, "ARG_OF_PERICENTER": 172.5923, "MEAN_ANOMALY": 190.2386, "EPHEMERIS_TYPE": 0, "CLASSIFICATION_TYPE": "U", "NORAD_CAT_ID": 40128, "ELEMENT_SET_NO": 999, "REV_AT_EPOCH": 7501, "BSTAR": 0, "MEAN_MOTION_DOT": -4.1e-07, "MEAN_MOTION_DDOT": 0}, "tle": {"line1": "1 40128U 14050A   25355.01259266 -.00000041  00000+0  00000+0 0  9990", "line2": "2 40128  49.0672 280.7264 1648745 172.5923 190.2386  1.85519694 75018"}}, "geometry": {"type": "Point", "coordinates": [3.8268791008571346, 48.889121254924945]}}, {"type": "Feature", "properties": {"norad_id": 40129, "name": "GSAT0202 (GALILEO 6)", "group": "galileo", "lat": -36.79393431717075, "lon": -120.61687898630265, "alt_km": 24386.753082087485, "timestamp": "2025-12-22T05:49:03.762230+00:00", "meta": {"OBJECT_NAME": "GSAT0202 (GALILEO 6)", "OBJECT_ID": "2014-050B", "EPOCH": "2025-12-18T13:46:22.484640", "MEAN_MOTION": 1.85520466, "ECCENTRICITY": 0.16491259, "INCLINATION": 49.0858, "RA_OF_ASC_NODE": 279.9095, "ARG_OF_PERICENTER": 173.2442, "MEAN_ANOMALY": 189.3393, "EPHEMERIS_TYPE": 0, "CLASSIFICATION_TYPE": "U", "NORAD_CAT_ID": 40129, "ELEMENT_SET_NO": 999, "REV_AT_EPOCH": 7713, "BSTAR": 0, "MEAN_MOTION_DOT": -5.9e-07, "MEAN_MOTION_DDOT": 0}, "tle": {"line1": "1 40129U 14050B   25352.57387135 -.00000059  00000+0  00000+0 0  9995", "line2": "2 40129  49.0858 279.9095 1649125 173.2442 189.3393  1.85520466 77135"}}, "geometry": {"type": "Point", "coordinates": [-120.61687898630265, -36.79393431717075]}}, {"type": "Feature", "properties": {"norad_id": 40544, "name": "GSAT0203 (GALILEO 7)", "group": "galileo", "lat": 52.21188438875565, "lon": 108.93446109435219, "alt_km": 23234.426097106294, "timestamp": "2025-12-22T05:49:03.762242+00:00", "meta": {"OBJECT_NAME": "GSAT0203 (GALILEO 7)", "OBJECT_ID": "2015-017A", "EPOCH": "2025-12-20T07:18:34.773696", "MEAN_MOTION": 1.70475998, "ECCENTRICITY": 0.00064692, "INCLINATION": 56.8445, "RA_OF_ASC_NODE": 346.4738, "ARG_OF_PERICENTER": 274.1452, "MEAN_ANOMALY": 85.7909, "EPHEMERIS_TYPE": 0, "CLASSIFICATION_TYPE": "U", "NORAD_CAT_ID": 40544, "ELEMENT_SET_NO": 999, "REV_AT_EPOCH": 6615, "BSTAR": 0, "MEAN_MOTION_DOT": -7.1e-07, "MEAN_MOTION_DDOT": 0}, "tle": {"line1": "1 40544U 15017A   25354.30456914 -.00000071  00000+0  00000+0 0  9999", "line2": "2 40544  56.8445 346.4738 0006469 274.1452  85.7909  1.70475998 66152"}}, "geometry": {"type": "Point", "coordinates": [108.93446109435219, 52.21188438875565]}}, {"type": "Feature", "properties": {"norad_id": 40545, "name": "GSAT0204 (GALILEO 8)", "group": "galileo", "lat": -38.12065151508598, "lon": -44.42473864598756, "alt_km": 23213.946019819836, "timestamp": "2025-12-22T05:49:03.762254+00:00", "meta": {"OBJECT_NAME": "GSAT0204 (GALILEO 8)", "OBJECT_ID": "2015-017B", "EPOCH": "2025-12-20T13:26:28.826304", "MEAN_MOTION": 1.70475697, "ECCENTRICITY": 0.0006133, "INCLINATION": 56.8522, "RA_OF_ASC_NODE": 346.4847, "ARG_OF_PERICENTER": 266.5447, "MEAN_ANOMALY": 93.3948, "EPHEMERIS_TYPE": 0, "CLASSIFICATION_TYPE": "U", "NORAD_CAT_ID": 40545, "ELEMENT_SET_NO": 999, "REV_AT_EPOCH": 2920, "BSTAR": 0, "MEAN_MOTION_DOT": -7e-07, "MEAN_MOTION_DDOT": 0}, "tle": {"line1": "1 40545U 15017B   25354.56005586 -.00000070  00000+0  00000+0 0  9992", "line2": "2 40545  56.8522 346.4847 0006133 266.5447  93.3948  1.70475697 29206"}}, "geometry": {"type": "Point", "coordinates": [-44.42473864598756, -38.12065151508598]}}, {"type": "Feature", "properties": {"norad_id": 40889, "name": "GSAT0205 (GALILEO 9)", "group": "galileo", "lat": 54.724295795845755, "lon": -35.41696409721155, "alt_km": 23205.205455573105, "timestamp": "2025-12-22T05:49:03.762265+00:00", "meta": {"OBJECT_NAME": "GSAT0205 (GALILEO 9)", "OBJECT_ID": "2015-045A", "EPOCH": "2025-12-20T21:57:55.201536", "MEAN_MOTION": 1.70473188, "ECCENTRICITY": 0.00060952, "INCLINATION": 55.0008, "RA_OF_ASC_NODE": 226.5322, "ARG_OF_PERICENTER": 41.0262, "MEAN_ANOMALY": 319.1287, "EPHEMERIS_TYPE": 0, "CLASSIFICATION_TYPE": "U", "NORAD_CAT_ID": 40889, "ELEMENT_SET_NO": 999, "REV_AT_EPOCH": 6397, "BSTAR": 0, "MEAN_MOTION_DOT": 7.2e-07, "MEAN_MOTION_DDOT": 0}, "tle": {"line1": "1 40889U 15045A   25354.91522224  .00000072  00000+0  00000+0 0  9997", "line2": "2 40889  55.0008 226.5322 0006095  41.0262 319.1287  1.70473188 63971"}}, "geometry": {"type": "Point", "coordinates": [-35.41696409721155, 54.724295795845755]}}, {"type": "Feature", "properties": {"norad_id": 40890, "name": "GSAT0206 (GALILEO 10)", "group": "galileo", "lat": -32.44031759219834, "lon": -159.9286481220106, "alt_km": 23225.60100743933, "timestamp": "2025-12-22T05:49:03.762291+00:00", "meta": {"OBJECT_NAME": "GSAT0206 (GALILEO 10)", "OBJECT_ID": "2015-045B", "EPOCH": "2025-12-21T03:15:40.639392", "MEAN_MOTION": 1.70473045, "ECCENTRICITY": 0.0004419, "INCLINATION": 54.9998, "RA_OF_ASC_NODE": 226.5212, "ARG_OF_PERICENTER": 45.8333, "MEAN_ANOMALY": 314.3117, "EPHEMERIS_TYPE": 0, "CLASSIFICATION_TYPE": "U", "NORAD_CAT_ID": 40890, "ELEMENT_SET_NO": 999, "REV_AT_EPOCH": 6400, "BSTAR": 0, "MEAN_MOTION_DOT": 7.2e-07, "MEAN_MOTION_DDOT": 0}, "tle": {"line1": "1 40890U 15045B   25355.13588703  .00000072  00000+0  00000+0 0  9998", "line2": "2 40890  54.9998 226.5212 0004419  45.8333 314.3117  1.70473045 64002"}}, "geometry": {"type": "Point", "coordinates": [-159.9286481220106, -32.44031759219834]}}, {"type": "Feature", "properties": {"norad_id": 41174, "name": "GSAT0209 (GALILEO 12)", "group": "galileo", "lat": -29.064091888689884, "lon": -51.638389278605786, "alt_km": 23230.52118787573, "timestamp": "2025-12-22T05:49:03.762306+00:00", "meta": {"OBJECT_NAME": "GSAT0209 (GALILEO 12)", "OBJECT_ID": "2015-079A", "EPOCH": "2025-12-20T17:12:54.927360", "MEAN_MOTION": 1.70474584, "ECCENTRICITY": 0.00024263, "INCLINATION": 55.7172, "RA_OF_ASC_NODE": 106.1622, "ARG_OF_PERICENTER": 346.435, "MEAN_ANOMALY": 13.5264, "EPHEMERIS_TYPE": 0, "CLASSIFICATION_TYPE": "U", "NORAD_CAT_ID": 41174, "ELEMENT_SET_NO": 999, "REV_AT_EPOCH": 6173, "BSTAR": 0, "MEAN_MOTION_DOT": 0, "MEAN_MOTION_DDOT": 0}, "tle": {"line1": "1 41174U 15079A   25354.71730240  .00000000  00000+0  00000+0 0  9990", "line2": "2 41174  55.7172 106.1622 0002426 346.4350  13.5264  1.70474584 61731"}}, "geometry": {"type": "Point", "coordinates": [-51.638389278605786, -29.064091888689884]}}]}